ONEWEB-0249             
1 48967U 21060A   25153.14329122 -.00000077  00000+0 -23488-3 0  9996
2 48967  87.9029 304.5294 0001931  98.6056 261.5294 13.16594273190893
ONEWEB-0250             
1 48968U 21060B   25154.15366353  .00000018  00000+0  10877-4 0  9998
2 48968  87.9031 303.3249 0002880 104.1845 255.9612 13.25807166191280
ONEWEB-0252             
1 48970U 21060D   25154.16292948 -.00000005  00000+0 -46996-4 0  9999
2 48970  87.9030 304.3191 0001499  93.3110 266.8192 13.16595257191074
ONEWEB-0253             
1 48971U 21060E   25153.46787338  .00000110  00000+0  25457-3 0  9997
2 48971  87.9026 304.4626 0001808 105.2568 254.8763 13.16595900190905
ONEWEB-0254             
1 48972U 21060F   25154.16134916  .00000047  00000+0  88213-4 0  9993
2 48972  87.9029 304.3081 0002082 109.4397 250.6959 13.16594558190992
ONEWEB-0255             
1 48973U 21060G   25153.13539466 -.00000012  00000+0 -63877-4 0  9992
2 48973  87.9028 304.5460 0001940 106.0547 254.0798 13.16595799190949
ONEWEB-0256             
1 48974U 21060H   25153.92148055  .00000085  00000+0  18803-3 0  9996
2 48974  87.9023 304.4011 0001666  95.0061 265.1260 13.16596002191013
ONEWEB-0257             
1 48975U 21060J   25153.87793273  .00000512  00000+0  13055-2 0  9997
2 48975  87.9033 304.3733 0001800 105.3910 254.7419 13.16600336190962
